STARLINK-1264_new
1 15382C 20019Y   21326.16789103 -.00002214  00000-0 -14833-3 0  3260
2 15382  53.0550 347.9982 0001827  47.8510 350.4416 15.06403058    13
STARLINK-1264_old
1 25382C 20019Y   21325.11579264  .00000339  00000-0  22701-4 0  3256
2 25382  53.0551 352.7213 0001812  47.5819  42.0112 15.06391317    19
